{
  "type": "FeatureCollection",
  "features": [
    {
      "type": "Feature",
      "properties": {
        "norad_id": 40730,
        "name": "GPS BIIF-10 (PRN 08)",
        "group": "gps-ops",
        "lat": 31.565281109603283,
        "lon": -59.07470553756166,
        "alt_km": 19890.883427820318,
        "timestamp": "2025-12-17T07:00:47.161854+00:00",
        "meta_object_name": "GPS BIIF-10 (PRN 08)",
        "meta_object_id": "2015-033A",
        "meta_epoch": "2025-12-15T17:48:26.893152",
        "meta_mean_motion": 2.00565528,
        "meta_eccentricity": 0.01111613,
        "meta_inclination": 54.128,
        "meta_ra_of_asc_node": 274.6493,
        "meta_arg_of_pericenter": 26.8812,
        "meta_mean_anomaly": 333.7061,
        "meta_ephemeris_type": 0,
        "meta_classification_type": "U",
        "meta_norad_cat_id": 40730,
        "meta_element_set_no": 999,
        "meta_rev_at_epoch": 7631,
        "meta_bstar": 0,
        "meta_mean_motion_dot": -6.1e-07,
        "meta_mean_motion_ddot": 0,
        "tle_line1": "1 40730U 15033A   25349.74197793 -.00000061  00000+0  00000+0 0  9992",
        "tle_line2": "2 40730  54.1280 274.6493 0111161  26.8812 333.7061  2.00565528 76312"
      },
      "geometry": {
        "type": "Point",
        "coordinates": [
          -59.07470553756166,
          31.565281109603283
        ]
      }
    },
    {
      "type": "Feature",
      "properties": {
        "norad_id": 41019,
        "name": "GPS BIIF-11 (PRN 10)",
        "group": "gps-ops",
        "lat": -2.917054580893491,
        "lon": 35.93785814778311,
        "alt_km": 20356.033124926056,
        "timestamp": "2025-12-17T07:00:47.161867+00:00",
        "meta_object_name": "GPS BIIF-11 (PRN 10)",
        "meta_object_id": "2015-062A",
        "meta_epoch": "2025-12-16T07:11:55.851072",
        "meta_mean_motion": 2.00567222,
        "meta_eccentricity": 0.01109218,
        "meta_inclination": 56.8347,
        "meta_ra_of_asc_node": 37.8646,
        "meta_arg_of_pericenter": 230.0329,
        "meta_mean_anomaly": 129.0434,
        "meta_ephemeris_type": 0,
        "meta_classification_type": "U",
        "meta_norad_cat_id": 41019,
        "meta_element_set_no": 999,
        "meta_rev_at_epoch": 7416,
        "meta_bstar": 0,
        "meta_mean_motion_dot": -8.3e-07,
        "meta_mean_motion_ddot": 0,
        "tle_line1": "1 41019U 15062A   25350.29995198 -.00000083  00000+0  00000+0 0  9996",
        "tle_line2": "2 41019  56.8347  37.8646 0110921 230.0329 129.0434  2.00567222 74164"
      },
      "geometry": {
        "type": "Point",
        "coordinates": [
          35.93785814778311,
          -2.917054580893491
        ]
      }
    },
    {
      "type": "Feature",
      "properties": {
        "norad_id": 41328,
        "name": "GPS BIIF-12 (PRN 32)",
        "group": "gps-ops",
        "lat": -47.34078049792092,
        "lon": 48.2553036811603,
        "alt_km": 20039.572633479867,
        "timestamp": "2025-12-17T07:00:47.161879+00:00",
        "meta_object_name": "GPS BIIF-12 (PRN 32)",
        "meta_object_id": "2016-007A",
        "meta_epoch": "2025-12-14T21:16:57.823104",
        "meta_mean_motion": 2.00560623,
        "meta_eccentricity": 0.00922757,
        "meta_inclination": 55.4074,
        "meta_ra_of_asc_node": 96.7717,
        "meta_arg_of_pericenter": 243.6198,
        "meta_mean_anomaly": 115.4149,
        "meta_ephemeris_type": 0,
        "meta_classification_type": "U",
        "meta_norad_cat_id": 41328,
        "meta_element_set_no": 999,
        "meta_rev_at_epoch": 7214,
        "meta_bstar": 0,
        "meta_mean_motion_dot": -3.3e-07,
        "meta_mean_motion_ddot": 0,
        "tle_line1": "1 41328U 16007A   25348.88678036 -.00000033  00000+0  00000+0 0  9995",
        "tle_line2": "2 41328  55.4074  96.7717 0092275 243.6198 115.4149  2.00560623 72143"
      },
      "geometry": {
        "type": "Point",
        "coordinates": [
          48.2553036811603,
          -47.34078049792092
        ]
      }
    },
    {
      "type": "Feature",
      "properties": {
        "norad_id": 43873,
        "name": "GPS BIII-1  (PRN 04)",
        "group": "gps-ops",
        "lat": -8.571780629822026,
        "lon": -74.71243523761439,
        "alt_km": 20085.278311284055,
        "timestamp": "2025-12-17T07:00:47.161891+00:00",
        "meta_object_name": "GPS BIII-1  (PRN 04)",
        "meta_object_id": "2018-109A",
        "meta_epoch": "2025-12-15T18:29:34.483200",
        "meta_mean_motion": 2.00553802,
        "meta_eccentricity": 0.00374359,
        "meta_inclination": 55.5688,
        "meta_ra_of_asc_node": 99.4273,
        "meta_arg_of_pericenter": 195.145,
        "meta_mean_anomaly": 336.5518,
        "meta_ephemeris_type": 0,
        "meta_classification_type": "U",
        "meta_norad_cat_id": 43873,
        "meta_element_set_no": 999,
        "meta_rev_at_epoch": 5139,
        "meta_bstar": 0,
        "meta_mean_motion_dot": -3.2e-07,
        "meta_mean_motion_ddot": 0,
        "tle_line1": "1 43873U 18109A   25349.77053800 -.00000032  00000+0  00000+0 0  9991",
        "tle_line2": "2 43873  55.5688  99.4273 0037435 195.1450 336.5518  2.00553802 51399"
      },
      "geometry": {
        "type": "Point",
        "coordinates": [
          -74.71243523761439,
          -8.571780629822026
        ]
      }
    },
    {
      "type": "Feature",
      "properties": {
        "norad_id": 44506,
        "name": "GPS BIII-2  (PRN 18)",
        "group": "gps-ops",
        "lat": 55.583415729906655,
        "lon": 62.93277897941048,
        "alt_km": 20231.140632590563,
        "timestamp": "2025-12-17T07:00:47.161903+00:00",
        "meta_object_name": "GPS BIII-2  (PRN 18)",
        "meta_object_id": "2019-056A",
        "meta_epoch": "2025-12-16T09:52:28.741728",
        "meta_mean_motion": 2.00566563,
        "meta_eccentricity": 0.00577066,
        "meta_inclination": 55.7201,
        "meta_ra_of_asc_node": 338.4066,
        "meta_arg_of_pericenter": 198.4994,
        "meta_mean_anomaly": 333.0667,
        "meta_ephemeris_type": 0,
        "meta_classification_type": "U",
        "meta_norad_cat_id": 44506,
        "meta_element_set_no": 999,
        "meta_rev_at_epoch": 4640,
        "meta_bstar": 0,
        "meta_mean_motion_dot": -8.9e-07,
        "meta_mean_motion_ddot": 0,
        "tle_line1": "1 44506U 19056A   25350.41144377 -.00000089  00000+0  00000+0 0  9992",
        "tle_line2": "2 44506  55.7201 338.4066 0057706 198.4994 333.0667  2.00566563 46405"
      },
      "geometry": {
        "type": "Point",
        "coordinates": [
          62.93277897941048,
          55.583415729906655
        ]
      }
    },
    {
      "type": "Feature",
      "properties": {
        "norad_id": 45854,
        "name": "GPS BIII-3  (PRN 23)",
        "group": "gps-ops",
        "lat": 25.75009071685291,
        "lon": 54.60616462263229,
        "alt_km": 20338.85352319071,
        "timestamp": "2025-12-17T07:00:47.161916+00:00",
        "meta_object_name": "GPS BIII-3  (PRN 23)",
        "meta_object_id": "2020-041A",
        "meta_epoch": "2025-12-15T05:19:26.228640",
        "meta_mean_motion": 2.00562018,
        "meta_eccentricity": 0.00605633,
        "meta_inclination": 56.5487,
        "meta_ra_of_asc_node": 36.0887,
        "meta_arg_of_pericenter": 203.5004,
        "meta_mean_anomaly": 133.1292,
        "meta_ephemeris_type": 0,
        "meta_classification_type": "U",
        "meta_norad_cat_id": 45854,
        "meta_element_set_no": 999,
        "meta_rev_at_epoch": 4034,
        "meta_bstar": 0,
        "meta_mean_motion_dot": -9e-07,
        "meta_mean_motion_ddot": 0,
        "tle_line1": "1 45854U 20041A   25349.22183135 -.00000090  00000+0  00000+0 0  9999",
        "tle_line2": "2 45854  56.5487  36.0887 0060563 203.5004 133.1292  2.00562018 40345"
      },
      "geometry": {
        "type": "Point",
        "coordinates": [
          54.60616462263229,
          25.75009071685291
        ]
      }
    },
    {
      "type": "Feature",
      "properties": {
        "norad_id": 46826,
        "name": "GPS BIII-4  (PRN 14)",
        "group": "gps-ops",
        "lat": 2.2652881085424643,
        "lon": -140.18644343368814,
        "alt_km": 20342.939588940073,
        "timestamp": "2025-12-17T07:00:47.161928+00:00",
        "meta_object_name": "GPS BIII-4  (PRN 14)",
        "meta_object_id": "2020-078A",
        "meta_epoch": "2025-12-16T01:06:13.902336",
        "meta_mean_motion": 2.00566891,
        "meta_eccentricity": 0.00647559,
        "meta_inclination": 54.0145,
        "meta_ra_of_asc_node": 218.2068,
        "meta_arg_of_pericenter": 203.3837,
        "meta_mean_anomaly": 339.3927,
        "meta_ephemeris_type": 0,
        "meta_classification_type": "U",
        "meta_norad_cat_id": 46826,
        "meta_element_set_no": 999,
        "meta_rev_at_epoch": 3783,
        "meta_bstar": 0,
        "meta_mean_motion_dot": 6.7e-07,
        "meta_mean_motion_ddot": 0,
        "tle_line1": "1 46826U 20078A   25350.04599424  .00000067  00000+0  00000+0 0  9996",
        "tle_line2": "2 46826  54.0145 218.2068 0064755 203.3837 339.3927  2.00566891 37831"
      },
      "geometry": {
        "type": "Point",
        "coordinates": [
          -140.18644343368814,
          2.2652881085424643
        ]
      }
    }
  ]
}